#cP2022  3 21 12  0  0.00000000     576 d+D   IGb14 EXT AIUB
## 2202 129600.00000000   300.00000000 59659 0.5000000000000
+   76   G01G02G03G04G05G06G07G08G09G10G11G12G13G14G15G16G17
+        G18G19G20G21G22G23G24G25G26G27G28G29G30G31G32R01R02
+        R03R04R05R07R08R09R12R13R14R15R17R18R19R20R21R22R24
+        E01E02E03E04E05E07E08E10E11E12E13E14E15E18E19E21E24
+        E25E26E27E30E31E33E34E36  0  0  0  0  0  0  0  0  0
++         6  7  6  8  7  6  7  6  6  5  8  7  7  7  7  7  6
++         8  7  7  7  7  7  6  6  7  6  7  7  6  6  6  8  7
++         7  7  6  7  7  7  7  8  7  7  8  7  9  9  8  7  7
++         6  5  5  6  7  6  6  7  7  7  6  7  7  7  7  5  6
++         7  7  6  6  6  6  7  7  0  0  0  0  0  0  0  0  0
%c M  cc GPS ccc cccc cccc cccc cccc ccccc ccccc ccccc ccccc
%c cc cc ccc ccc cccc cccc cccc cccc ccccc ccccc ccccc ccccc
%f  1.2500000  1.025000000  0.00000000000  0.000000000000000
%f  0.0000000  0.000000000  0.00000000000  0.000000000000000
%i    0    0    0    0      0      0      0      0         0
%i    0    0    0    0      0      0      0      0         0
/* Center for Orbit Determination in Europe (CODE)          
/* Ultra-rapid GRE orbits starting year-day 22080 12 hour   
/* Observed/predicted: 24/24 hours (data used up to 081L)   
/* PCV:IGS14      OL/AL:FES2014b NONE     YN ORB:CoN CLK:BRD
*  2022  3 23  6 55  0.00000000
PG01 -13573.083918  19914.610306  10466.413596    402.306927               P   P
PG02  14997.214220    326.727078 -21273.014018   -652.548672               P   P
PG03 -19828.186506  12987.563702 -11971.489450   -175.713042               P   P
PG04 -10137.624425  11432.990671 -21712.501707   -181.643746               P   P
PG05  26021.327485  -4730.247515  -3378.940939    -75.663213               P   P
PG06   7653.075482  17126.915850 -18703.216324    240.798093               P   P
PG07  -4362.866235  25555.564035   4762.951480    317.364938               P   P
PG08 -17514.699086   1858.210272  19953.440237    -60.934637               P   P
PG09    683.468397  19298.569930 -18287.873982   -348.218112               P   P
PG10  -9046.793344 -12953.237200  21538.777629   -355.440882               P   P
PG11  15287.114753   2047.401918 -21627.170769    -57.314103               P   P
PG12  22694.794804 -10146.674805  -9431.417880   -189.099124               P   P
PG13  19324.872551   7668.695900  16471.410072    281.531855               P   P
PG14   7498.069177  13978.243443  21306.543250    -96.448420               P   P
PG15  17172.987106  -4563.096227  19423.047860    -74.652034               P   P
PG16 -25890.726592  -1294.465568  -7083.769434   -483.788626               P   P
PG17  12830.805128  22413.387623   6516.310076    590.866511               P   P
PG18   5291.042431 -25620.658121   4244.811279    213.384243               P   P
PG19  17017.136075  20462.423289  -1914.811908    134.666703               P   P
PG20  23370.993124    268.321069 -12384.604437    516.174018               P   P
PG21 -15899.384484  10187.438899  19067.176596    159.707154               P   P
PG22 -18282.555597 -18966.500319  -3680.796322    231.802534               P   P
PG23   3732.944635 -15884.181045  20928.949888     -9.121154               P   P
PG24  14312.494419 -16971.134145  13974.787293    265.327040               P   P
PG25  11118.923751 -15905.797148 -18295.968524    302.085685               P   P
PG26 -19503.286949  -7174.823994 -16797.874536    192.979619               P   P
PG27 -21154.189713  -9622.410547  13012.732155    162.800531               P   P
PG28  15687.467262  10939.403311  18849.621282    374.367135               P   P
PG29   2093.437978 -18071.528115 -19380.675789   -494.595551               P   P
PG30   1699.738402  23523.620196  12042.774556   -520.153272               P   P
PG31  -9853.587958 -14729.053277 -19765.329651   -170.171270               P   P
PG32 -16405.724224 -20760.699183   3415.614057    -90.260198               P   P
PR01   5161.102099  -9877.293791  22951.543086      7.323921               P   P
PR02 -14824.575967 -13711.482132  15672.127778    513.289392               P   P
PR03 -23952.786376  -8830.089711   -634.091272     53.620338               P   P
PR04 -19500.934842    682.396369 -16401.879077    133.223630               P   P
PR05  -4397.713844   9873.497014 -23089.038524     89.876728               P   P
PR07  24004.004990   8427.508746   1525.208287     32.945536               P   P
PR08  19407.188259   -974.552761  16571.468132    -64.221585               P   P
PR09   2531.560379  12251.616451  22232.009856     45.807759               P   P
PR12  13344.301895 -18260.267779 -11755.522664     17.565683               P   P
PR13  -1170.162900 -12818.866332 -22041.623195    -19.823209               P   P
PR14 -16169.869477   1006.379891 -19692.040847     75.655989               P   P
PR15 -20852.943883  13505.212147  -5772.847094     97.377226               P   P
PR17 -10981.449365 -11094.267189  20171.671518    511.741367               P   P
PR18  -9259.695561   6997.557544  22720.850427    111.167603               P   P
PR19  -3813.689020  20846.752974  14192.993008   -182.567471               P   P
PR20   5400.662393  24259.028834  -5624.412344    -67.216352               P   P
PR21  10952.298863   9733.768876 -20885.422949   -287.492933               P   P
PR22   8988.223375  -8047.737696 -22504.601443   -172.372139               P   P
PR24  -6387.810216 -23882.871682   6288.356795     85.679541               P   P
PE01  28338.860941  -6083.249508   5973.959934   -602.136882               P   P
PE02 -28364.617269   6194.837916  -5834.036068    288.042909               P   P
PE03 -23373.151005  -2904.041705 -17920.928942   -540.265657               P   P
PE04  10013.776285 -13852.470463  24175.023921   -990.532189               P   P
PE05 -23251.787811 -18290.369648   -999.614426   -197.778698               P   P
PE07   9617.633549  22802.991410 -16235.692353   -651.115810               P   P
PE08  -9523.376274  14042.344829 -24250.428185   -499.826430               P   P
PE10   6391.870002 -28766.387867  -2824.727087   -502.154877               P   P
PE11   -246.470071 -28655.816556   7454.255359   4158.377405               P   P
PE12  11885.364750 -24300.853619 -12045.165744   4699.738016               P   P
PE13   -143.577357  28794.856220  -6821.969749    427.487360               P   P
PE14   5785.973675  23093.813076  12404.645829  -1787.987057               P   P
PE15 -11858.918295  24207.084559  12222.212684    756.125067               P   P
PE18   6103.361263 -20453.446409 -21168.319574  -1651.557428               P   P
PE19  24131.498372   5207.971423  16337.250163  -1778.682948               P   P
PE21  20137.117005   7338.109561  20406.617774   -724.146864               P   P
PE24   1516.891821 -17755.796557 -23647.600366   -520.544242               P   P
PE25 -19943.201169  -7512.100341 -20547.786515   -567.778032               P   P
PE26  12124.147713  15522.469026 -22088.969033   -944.520558               P   P
PE27   -104.738976  17404.552883  23942.041098   -259.436352               P   P
PE30 -20991.294221  16745.135748  12464.407046   -370.984080               P   P
PE31  20091.253877 -17137.783680 -13361.056630   -493.949688               P   P
PE33  16522.767153  -5393.786994 -23957.014054   -458.312538               P   P
PE34 -16516.716064   5641.558346  23902.657097   -508.224597               P   P
PE36 -11572.302473 -16451.727846  21726.043549   -349.211090               P   P
EOF
